ONEWEB-0706             
1 61611U 24188T   26017.63520332 -.00000049  00000+0 -17562-3 0  9996
2 61611  87.8772  66.2777 0001835 119.8992 240.2318 13.10376216 63668
ONEWEB-0707             
1 61612U 24188U   26017.64185080  .00000211  00000+0  56815-3 0  9998
2 61612  87.8785  66.2578 0001792 118.7594 241.3713 13.10375937 63604
ONEWEB-0708             
1 61613U 24188V   26017.50740206  .00000664  00000+0  18654-2 0  9991
2 61613  87.8770  66.3166 0002356 105.6105 254.5283 13.10372479 63564
