[{"OBJECT_NAME":"ONEWEB-0706","OBJECT_ID":"2024-188T","EPOCH":"2026-01-17T15:14:41.566848","MEAN_MOTION":13.10376216,"ECCENTRICITY":0.00018359,"INCLINATION":87.8772,"RA_OF_ASC_NODE":66.2777,"ARG_OF_PERICENTER":119.8992,"MEAN_ANOMALY":240.2318,"EPHEMERIS_TYPE":0,"CLASSIFICATION_TYPE":"U","NORAD_CAT_ID":61611,"ELEMENT_SET_NO":999,"REV_AT_EPOCH":6366,"BSTAR":-0.00017562336,"MEAN_MOTION_DOT":-4.9e-7,"MEAN_MOTION_DDOT":0},{"OBJECT_NAME":"ONEWEB-0707","OBJECT_ID":"2024-188U","EPOCH":"2026-01-17T15:24:15.909120","MEAN_MOTION":13.10375937,"ECCENTRICITY":0.00017927,"INCLINATION":87.8785,"RA_OF_ASC_NODE":66.2578,"ARG_OF_PERICENTER":118.7594,"MEAN_ANOMALY":241.3713,"EPHEMERIS_TYPE":0,"CLASSIFICATION_TYPE":"U","NORAD_CAT_ID":61612,"ELEMENT_SET_NO":999,"REV_AT_EPOCH":6360,"BSTAR":0.00056814846,"MEAN_MOTION_DOT":2.11e-6,"MEAN_MOTION_DDOT":0},{"OBJECT_NAME":"ONEWEB-0708","OBJECT_ID":"2024-188V","EPOCH":"2026-01-17T12:10:39.537984","MEAN_MOTION":13.10372479,"ECCENTRICITY":0.0002356,"INCLINATION":87.877,"RA_OF_ASC_NODE":66.3166,"ARG_OF_PERICENTER":105.6105,"MEAN_ANOMALY":254.5283,"EPHEMERIS_TYPE":0,"CLASSIFICATION_TYPE":"U","NORAD_CAT_ID":61613,"ELEMENT_SET_NO":999,"REV_AT_EPOCH":6356,"BSTAR":0.0018653616,"MEAN_MOTION_DOT":6.64e-6,"MEAN_MOTION_DDOT":0}]
